[{"OBJECT_NAME":"GAOFEN-9 03","OBJECT_ID":"2020-039A","EPOCH":"2026-03-09T21:55:15.121344","MEAN_MOTION":15.30529116,"ECCENTRICITY":0.0013094,"INCLINATION":97.5219,"RA_OF_ASC_NODE":201.2158,"ARG_OF_PERICENTER":77.4533,"MEAN_ANOMALY":282.8172,"EPHEMERIS_TYPE":0,"CLASSIFICATION_TYPE":"U","NORAD_CAT_ID":45794,"ELEMENT_SET_NO":999,"REV_AT_EPOCH":31856,"BSTAR":0.00039258132,"MEAN_MOTION_DOT":0.00011544,"MEAN_MOTION_DDOT":0},{"OBJECT_NAME":"STARLINK-35937","OBJECT_ID":"2025-265B","EPOCH":"2026-03-09T22:02:47.230944","MEAN_MOTION":15.27611932,"ECCENTRICITY":0.00021615,"INCLINATION":43.0011,"RA_OF_ASC_NODE":277.0546,"ARG_OF_PERICENTER":258.4803,"MEAN_ANOMALY":101.5806,"EPHEMERIS_TYPE":0,"CLASSIFICATION_TYPE":"U","NORAD_CAT_ID":66517,"ELEMENT_SET_NO":999,"REV_AT_EPOCH":1714,"BSTAR":0.0010729742,"MEAN_MOTION_DOT":0.00029411,"MEAN_MOTION_DDOT":0}]
